CCSDS_OMM_VERS,COMMENT,CREATION_DATE,ORIGINATOR,OBJECT_NAME,OBJECT_ID,CENTER_NAME,REF_FRAME,TIME_SYSTEM,MEAN_ELEMENT_THEORY,EPOCH,MEAN_MOTION,ECCENTRICITY,INCLINATION,RA_OF_ASC_NODE,ARG_OF_PERICENTER,MEAN_ANOMALY,EPHEMERIS_TYPE,CLASSIFICATION_TYPE,NORAD_CAT_ID,ELEMENT_SET_NO,REV_AT_EPOCH,BSTAR,MEAN_MOTION_DOT,MEAN_MOTION_DDOT,SEMIMAJOR_AXIS,PERIOD,APOAPSIS,PERIAPSIS,OBJECT_TYPE,RCS_SIZE,COUNTRY_CODE,LAUNCH_DATE,SITE,DECAY_DATE,FILE,GP_ID,TLE_LINE0,TLE_LINE1,TLE_LINE2
"2.0","GENERATED VIA SPACE-TRACK.ORG API","2020-10-31T03:44:25","18 SPCS","IRIDIUM 136","2017-061H","EARTH","TEME","UTC","SGP4","2020-10-30T20:57:06.299712","14.34219700","0.00018000","86.3995","164.1736","76.0536","284.0860","0","U","42962","999","16024","0.00002842100000","0.00000099","0.0000000000000","7155.797","100.403","778.950","776.374","PAYLOAD","LARGE","US","2017-10-09","AFWTR","","2866339","164525254","0 IRIDIUM 136","1 42962U 17061H   20304.87298958 +.00000099 +00000-0 +28421-4 0  9992","2 42962 086.3995 164.1736 0001800 076.0536 284.0860 14.34219700160241"
"2.0","GENERATED VIA SPACE-TRACK.ORG API","2020-10-30T16:41:09","18 SPCS","COSMOS 1818","1987-011A","EARTH","TEME","UTC","SGP4","2020-10-30T06:05:04.896960","14.31459836","0.00157140","65.0109","245.9805","285.6428","74.2923","0","U","17369","999","81455","0.00000650020000","-0.00000083","0.0000000000000","7164.992","100.596","798.116","775.598","PAYLOAD","LARGE","CIS","1987-02-01","TTMTR","","2866056","164485677","0 COSMOS 1818","1 17369U 87011A   20304.25352890 -.00000083 +00000-0 +65002-5 0  9996","2 17369 065.0109 245.9805 0015714 285.6428 074.2923 14.31459836814559"
"2.0","GENERATED VIA SPACE-TRACK.ORG API","2020-10-30T16:41:09","18 SPCS","IRIDIUM 136","2017-061H","EARTH","TEME","UTC","SGP4","2020-10-30T04:12:26.381376","14.34219624","0.00018160","86.3996","164.4649","75.7880","284.3517","0","U","42962","999","16014","0.00002926700000","0.00000102","0.0000000000000","7155.797","100.403","778.962","776.363","PAYLOAD","LARGE","US","2017-10-09","AFWTR","","2866056","164497256","0 IRIDIUM 136","1 42962U 17061H   20304.17530534 +.00000102 +00000-0 +29267-4 0  9998","2 42962 086.3996 164.4649 0001816 075.7880 284.3517 14.34219624160149"
"2.0","GENERATED VIA SPACE-TRACK.ORG API","2020-10-30T02:43:22","18 SPCS","COSMOS 1818","1987-011A","EARTH","TEME","UTC","SGP4","2020-10-29T21:42:03.796704","14.31459812","0.00157050","65.0108","246.9587","285.6113","74.3238","0","U","17369","999","81450","0.00000526740000","-0.00000086","0.0000000000000","7164.992","100.596","798.110","775.604","PAYLOAD","LARGE","CIS","1987-02-01","TTMTR","","2865463","164452170","0 COSMOS 1818","1 17369U 87011A   20303.90421061 -.00000086 +00000-0 +52674-5 0  9998","2 17369 065.0108 246.9587 0015705 285.6113 074.3238 14.31459812814506"
"2.0","GENERATED VIA SPACE-TRACK.ORG API","2020-10-30T02:43:22","18 SPCS","IRIDIUM 136","2017-061H","EARTH","TEME","UTC","SGP4","2020-10-29T21:30:34.418016","14.34219550","0.00018260","86.3996","164.5814","75.7086","284.4312","0","U","42962","999","16010","0.00002835400000","0.00000099","0.0000000000000","7155.798","100.403","778.969","776.356","PAYLOAD","LARGE","US","2017-10-09","AFWTR","","2865463","164462033","0 IRIDIUM 136","1 42962U 17061H   20303.89623169 +.00000099 +00000-0 +28354-4 0  9994","2 42962 086.3996 164.5814 0001826 075.7086 284.4312 14.34219550160101"
"2.0","GENERATED VIA SPACE-TRACK.ORG API","2020-10-29T20:50:28","18 SPCS","COSMOS 1818","1987-011A","EARTH","TEME","UTC","SGP4","2020-10-29T13:19:02.699040","14.31459771","0.00157030","65.0108","247.9369","285.6229","74.3122","0","U","17369","999","81445","0.00000544050000","-0.00000086","0.0000000000000","7164.992","100.596","798.108","775.606","PAYLOAD","LARGE","CIS","1987-02-01","TTMTR","","2865173","164424502","0 COSMOS 1818","1 17369U 87011A   20303.55489235 -.00000086 +00000-0 +54405-5 0  9990","2 17369 065.0108 247.9369 0015703 285.6229 074.3122 14.31459771814451"
"2.0","GENERATED VIA SPACE-TRACK.ORG API","2020-10-29T20:50:28","18 SPCS","IRIDIUM 136","2017-061H","EARTH","TEME","UTC","SGP4","2020-10-29T13:08:14.456256","14.34219525","0.00018340","86.3996","164.7271","75.6659","284.4740","0","U","42962","999","16005","0.00002911600000","0.00000101","0.0000000000000","7155.798","100.403","778.975","776.350","PAYLOAD","LARGE","US","2017-10-09","AFWTR","","2865173","164437591","0 IRIDIUM 136","1 42962U 17061H   20303.54738954 +.00000101 +00000-0 +29116-4 0  9996","2 42962 086.3996 164.7271 0001834 075.6659 284.4740 14.34219525160055"
"2.0","GENERATED VIA SPACE-TRACK.ORG API","2020-10-29T06:36:10","18 SPCS","COSMOS 1818","1987-011A","EARTH","TEME","UTC","SGP4","2020-10-29T04:56:01.597920","14.31459744","0.00156970","65.0108","248.9150","285.5865","74.3486","0","U","17369","999","81468","0.00000565870000","-0.00000085","0.0000000000000","7164.992","100.596","798.104","775.610","PAYLOAD","LARGE","CIS","1987-02-01","TTMTR","","2864485","164404354","0 COSMOS 1818","1 17369U 87011A   20303.20557405 -.00000085  00000-0  56587-5 0  9999","2 17369  65.0108 248.9150 0015697 285.5865  74.3486 14.31459744814685"
"2.0","GENERATED VIA SPACE-TRACK.ORG API","2020-10-29T06:36:10","18 SPCS","IRIDIUM 136","2017-061H","EARTH","TEME","UTC","SGP4","2020-10-29T01:24:58.508928","14.34219459","0.00018430","86.3997","164.9310","75.5393","284.6007","0","U","42962","999","15998","0.00002915900000","0.00000101","0.0000000000000","7155.798","100.403","778.982","776.344","PAYLOAD","LARGE","US","2017-10-09","AFWTR","","2864506","164404600","0 IRIDIUM 136","1 42962U 17061H   20303.05901052  .00000101  00000-0  29159-4 0  9990","2 42962  86.3997 164.9310 0001843  75.5393 284.6007 14.34219459159980"
"2.0","GENERATED VIA SPACE-TRACK.ORG API","2020-10-28T20:30:53","18 SPCS","COSMOS 1818","1987-011A","EARTH","TEME","UTC","SGP4","2020-10-28T13:50:35.612448","14.31459727","0.00156850","65.0108","250.6757","285.5886","74.3466","0","U","17369","999","81431","0.00000514450000","-0.00000087","0.0000000000000","7164.992","100.596","798.095","775.619","PAYLOAD","LARGE","CIS","1987-02-01","TTMTR","","2864042","164377397","0 COSMOS 1818","1 17369U 87011A   20302.57680107 -.00000087 +00000-0 +51445-5 0  9994","2 17369 065.0108 250.6757 0015685 285.5886 074.3466 14.31459727814317"
"2.0","GENERATED VIA SPACE-TRACK.ORG API","2020-10-28T20:30:53","18 SPCS","IRIDIUM 136","2017-061H","EARTH","TEME","UTC","SGP4","2020-10-28T08:40:18.581952","14.34219337","0.00018650","86.3998","165.2222","75.3072","284.8331","0","U","42962","999","15988","0.00002751300000","0.00000097","0.0000000000000","7155.798","100.403","778.998","776.329","PAYLOAD","LARGE","US","2017-10-09","AFWTR","","2864042","164392263","0 IRIDIUM 136","1 42962U 17061H   20302.36132618 +.00000097 +00000-0 +27513-4 0  9993","2 42962 086.3998 165.2222 0001865 075.3072 284.8331 14.34219337159889"
"2.0","GENERATED VIA SPACE-TRACK.ORG API","2020-10-28T05:10:23","18 SPCS","IRIDIUM 136","2017-061H","EARTH","TEME","UTC","SGP4","2020-10-27T20:57:02.630304","14.34219247","0.00018740","86.3999","165.4261","75.0700","285.0704","0","U","42962","999","15981","0.00002572900000","0.00000092","0.0000000000000","7155.799","100.403","779.005","776.323","PAYLOAD","LARGE","US","2017-10-09","AFWTR","","2863612","164363117","0 IRIDIUM 136","1 42962U 17061H   20301.87294711 +.00000092 +00000-0 +25729-4 0  9993","2 42962 086.3999 165.4261 0001874 075.0700 285.0704 14.34219247159810"
"2.0","GENERATED VIA SPACE-TRACK.ORG API","2020-10-28T05:10:23","18 SPCS","COSMOS 1818","1987-011A","EARTH","TEME","UTC","SGP4","2020-10-27T19:23:57.183072","14.31459695","0.00156640","65.0107","252.8277","285.5485","74.3870","0","U","17369","999","81448","0.00000242930000","-0.00000094","0.0000000000000","7164.992","100.596","798.081","775.634","PAYLOAD","LARGE","CIS","1987-02-01","TTMTR","","2863612","164349190","0 COSMOS 1818","1 17369U 87011A   20301.80830073 -.00000094 +00000-0 +24293-5 0  9997","2 17369 065.0107 252.8277 0015664 285.5485 074.3870 14.31459695814480"
"2.0","GENERATED VIA SPACE-TRACK.ORG API","2020-10-27T20:17:28","18 SPCS","COSMOS 1818","1987-011A","EARTH","TEME","UTC","SGP4","2020-10-27T14:22:08.521536","14.31459686","0.00156560","65.0107","253.4146","285.5799","74.3557","0","U","17369","999","81417","0.00000197900000","-0.00000095","0.0000000000000","7164.992","100.596","798.075","775.640","PAYLOAD","LARGE","CIS","1987-02-01","TTMTR","","2863525","164327254","0 COSMOS 1818","1 17369U 87011A   20301.59870974 -.00000095 +00000-0 +19790-5 0  9994","2 17369 065.0107 253.4146 0015656 285.5799 074.3557 14.31459686814179"
"2.0","GENERATED VIA SPACE-TRACK.ORG API","2020-10-27T20:17:28","18 SPCS","IRIDIUM 136","2017-061H","EARTH","TEME","UTC","SGP4","2020-10-27T09:13:46.673472","14.34219206","0.00018910","86.3999","165.6300","75.0944","285.0461","0","U","42962","999","15974","0.00002645300000","0.00000094","0.0000000000000","7155.799","100.403","779.017","776.311","PAYLOAD","LARGE","US","2017-10-09","AFWTR","","2863525","164340679","0 IRIDIUM 136","1 42962U 17061H   20301.38456798 +.00000094 +00000-0 +26453-4 0  9991","2 42962 086.3999 165.6300 0001891 075.0944 285.0461 14.34219206159742"
"2.0","GENERATED VIA SPACE-TRACK.ORG API","2020-10-27T06:36:11","18 SPCS","COSMOS 1818","1987-011A","EARTH","TEME","UTC","SGP4","2020-10-27T04:18:31.196736","14.31459662","0.00156440","65.0106","254.5884","285.5460","74.3897","0","U","17369","999","81439","0.00000071190000","-0.00000098","0.0000000000000","7164.992","100.596","798.066","775.648","PAYLOAD","LARGE","CIS","1987-02-01","TTMTR","","2862854","164307763","0 COSMOS 1818","1 17369U 87011A   20301.17952774 -.00000098  00000-0  71190-6 0  9993","2 17369  65.0106 254.5884 0015644 285.5460  74.3897 14.31459662814396"
